<?xml version="1.0" encoding="utf-8" ?>
<kml xmlns="http://www.opengis.net/kml/2.2">
<Document id="root_doc">
<Folder><name>Emergency_Stations_20260831_1547</name>
  <Placemark>
	<name>0.00&quot;</name>
	<description>SGA: 1-Hempstead Bay

WU Station: KNYBALDW37

Date: 08-31-2026</description>
      <Point><coordinates>-73.61,40.64</coordinates></Point>
  </Placemark>
  <Placemark>
	<name>0.00&quot;</name>
	<description>SGA: 1-Hempstead Bay

WU Station: KNYBELLM16

Date: 08-31-2026</description>
      <Point><coordinates>-73.53,40.65</coordinates></Point>
  </Placemark>
  <Placemark>
	<name>0.00&quot;</name>
	<description>SGA: 1-Hempstead Bay

WU Station: KNYFREEP17

Date: 08-31-2026</description>
      <Point><coordinates>-73.58,40.63</coordinates></Point>
  </Placemark>
  <Placemark>
	<name>0.00&quot;</name>
	<description>SGA: 1-Hempstead Bay

WU Station: KNYFREEP2

Date: 08-31-2026</description>
      <Point><coordinates>-73.59,40.64</coordinates></Point>
  </Placemark>
  <Placemark>
	<name>0.00&quot;</name>
	<description>SGA: 1-Hempstead Bay

WU Station: KNYMERRI23

Date: 08-31-2026</description>
      <Point><coordinates>-73.55,40.64</coordinates></Point>
  </Placemark>
  <Placemark>
	<name>0.00&quot;</name>
	<description>SGA: 1-Hempstead Bay

WU Station: KNYOCEAN63

Date: 08-31-2026</description>
      <Point><coordinates>-73.62,40.63</coordinates></Point>
  </Placemark>
</Folder>
</Document></kml>
